[
   {
      "name": "FALCON 9 DEB (XIX)",
      "line1": "1 48039U 21024BQ  21092.87613152  .00373635  78457-4  42753-3 0  9996",
      "line2": "2 48039  53.0495 156.6798 0012726 213.0910 146.9328 16.08338205  2829",
      "drg": 42.753,
      "inc": 53.0495,
      "ran": 156.6798,
      "ecc": 0.0012726,
      "aop": 213.091,
      "man": 146.9328,
      "mmo": 16.08338205,
      "sma": 6629.54296
   },
   {
      "name": "FALCON 9 DEB (XX)",
      "line1": "1 48040U 21024BR  21092.62477361  .00383675  82899-4  42568-3 0  9995",
      "line2": "2 48040  53.0497 157.9631 0009858 209.9004 150.1467 16.08887122  2786",
      "drg": 42.568,
      "inc": 53.0497,
      "ran": 157.9631,
      "ecc": 0.0009858,
      "aop": 209.9004,
      "man": 150.1467,
      "mmo": 16.08887122,
      "sma": 6628.03497
   },
   {
      "name": "ISS (ZARYA)",
      "line1": "1 25544U 98067A   21093.20536128  .00021898  00000-0  40641-3 0  9998",
      "line2": "2 25544  51.6467 353.5896 0002720 183.0173 314.9339 15.48865705276976",
      "drg": 40.641,
      "inc": 51.6467,
      "ran": 353.5896,
      "ecc": 0.000272,
      "aop": 183.0173,
      "man": 314.9339,
      "mmo": 15.48865705,
      "sma": 6798.18009
   },
   {
      "name": "KESTREL EYE IIM (KE2M)",
      "line1": "1 42982U 98067NE  21092.75399419  .00052815  00000-0  20328-3 0  9995",
      "line2": "2 42982  51.6292 230.9338 0000396 145.7450 214.3580 15.86792856196707",
      "drg": 20.328,
      "inc": 51.6292,
      "ran": 230.9338,
      "ecc": 3.96e-05,
      "aop": 145.745,
      "man": 214.358,
      "mmo": 15.86792856,
      "sma": 6689.41824
   },
   {
      "name": "RADSAT-G",
      "line1": "1 43553U 98067PB  21092.72569383  .01711470  11945-4  66367-3 0  9993",
      "line2": "2 43553  51.6276 237.6534 0010238 315.1208  44.8983 16.23093139155894",
      "drg": 66.367,
      "inc": 51.6276,
      "ran": 237.6534,
      "ecc": 0.0010238,
      "aop": 315.1208,
      "man": 44.8983,
      "mmo": 16.23093139,
      "sma": 6589.30404
   },
   {
      "name": "LEMUR-2-VU",
      "line1": "1 43558U 18046E   21092.51372884  .00003636  00000-0  12288-3 0  9998",
      "line2": "2 43558  51.6391 148.7379 0006581 257.6035 102.4210 15.33246588151720",
      "drg": 12.288,
      "inc": 51.6391,
      "ran": 148.7379,
      "ecc": 0.0006581,
      "aop": 257.6035,
      "man": 102.421,
      "mmo": 15.33246588,
      "sma": 6844.27057
   },
   {
      "name": "LEMUR-2-ALEXANDER",
      "line1": "1 43559U 18046F   21092.83715023  .00004002  00000-0  13317-3 0  9992",
      "line2": "2 43559  51.6389 146.4172 0006524 258.8178 101.2070 15.33475127151568",
      "drg": 13.317,
      "inc": 51.6389,
      "ran": 146.4172,
      "ecc": 0.0006524,
      "aop": 258.8178,
      "man": 101.207,
      "mmo": 15.33475127,
      "sma": 6843.59054
   },
   {
      "name": "LEMUR-2-YUASA",
      "line1": "1 43560U 18046G   21092.87031791  .00003793  00000-0  12791-3 0  9992",
      "line2": "2 43560  51.6401 147.3638 0006849 273.1862  86.8336 15.33193636151770",
      "drg": 12.791,
      "inc": 51.6401,
      "ran": 147.3638,
      "ecc": 0.0006849,
      "aop": 273.1862,
      "man": 86.8336,
      "mmo": 15.33193636,
      "sma": 6844.42816
   },
   {
      "name": "LEMUR-2-TOMHENDERSON",
      "line1": "1 43561U 18046H   21092.87152533  .00004637  00000-0  15532-3 0  9995",
      "line2": "2 43561  51.6402 148.1071 0007052 269.8009  90.2164 15.32867029151326",
      "drg": 15.532,
      "inc": 51.6402,
      "ran": 148.1071,
      "ecc": 0.0007052,
      "aop": 269.8009,
      "man": 90.2164,
      "mmo": 15.32867029,
      "sma": 6845.40035
   },
   {
      "name": "1998-067PN",
      "line1": "1 43638U 98067PN  21092.77383494  .00042104  00000-0  25928-3 0  9993",
      "line2": "2 43638  51.6314 277.1460 0000734  26.2331 333.8706 15.76750749142103",
      "drg": 25.928,
      "inc": 51.6314,
      "ran": 277.146,
      "ecc": 7.34e-05,
      "aop": 26.2331,
      "man": 333.8706,
      "mmo": 15.76750749,
      "sma": 6717.79083
   },
   {
      "name": "STARS-ME",
      "line1": "1 43640U 98067PQ  21092.77642039  .00096938  00000-0  40624-3 0  9993",
      "line2": "2 43640  51.6285 266.4904 0001818 326.6486  33.4403 15.84793775142246",
      "drg": 40.624,
      "inc": 51.6285,
      "ran": 266.4904,
      "ecc": 0.0001818,
      "aop": 326.6486,
      "man": 33.4403,
      "mmo": 15.84793775,
      "sma": 6695.04248
   },
   {
      "name": "ISS DEB (SEDA-AP)",
      "line1": "1 43870U 98067PU  21092.85604423  .00007950  00000-0  97793-4 0  9998",
      "line2": "2 43870  51.6361 312.4166 0003881  57.3140 302.8227 15.61280731129818",
      "drg": 9.7793,
      "inc": 51.6361,
      "ran": 312.4166,
      "ecc": 0.0003881,
      "aop": 57.314,
      "man": 302.8227,
      "mmo": 15.61280731,
      "sma": 6762.09355
   },
   {
      "name": "ISS DEB (II)",
      "line1": "1 44303U 98067QA  21092.94807264  .00008114  00000-0  11180-3 0  9996",
      "line2": "2 44303  51.6400 331.9599 0004238 330.0577  30.0173 15.58207324104830",
      "drg": 11.18,
      "inc": 51.64,
      "ran": 331.9599,
      "ecc": 0.0004238,
      "aop": 330.0577,
      "man": 30.0173,
      "mmo": 15.58207324,
      "sma": 6770.98233
   },
   {
      "name": "ISS DEB (III)",
      "line1": "1 44306U 98067QD  21092.93361321  .00010024  00000-0  13429-3 0  9998",
      "line2": "2 44306  51.6383 331.7677 0005329 325.5251  34.5395 15.58651807104843",
      "drg": 13.429,
      "inc": 51.6383,
      "ran": 331.7677,
      "ecc": 0.0005329,
      "aop": 325.5251,
      "man": 34.5395,
      "mmo": 15.58651807,
      "sma": 6769.69501
   },
   {
      "name": "RED-EYE 1 (PINOT)",
      "line1": "1 44364U 98067QJ  21092.84253765  .00008779  00000-0  12093-3 0  9994",
      "line2": "2 44364  51.6402 333.4922 0005492 325.4163  34.6471 15.58088395100391",
      "drg": 12.093,
      "inc": 51.6402,
      "ran": 333.4922,
      "ecc": 0.0005492,
      "aop": 325.4163,
      "man": 34.6471,
      "mmo": 15.58088395,
      "sma": 6771.32688
   },
   {
      "name": "ISS DEB (IV)",
      "line1": "1 44788U 98067QT  21092.88868547  .00159416  00000-0  76280-3 0  9991",
      "line2": "2 44788  51.6299 317.9046 0002536 268.3617  91.7095 15.81764427 78689",
      "drg": 76.28,
      "inc": 51.6299,
      "ran": 317.9046,
      "ecc": 0.0002536,
      "aop": 268.3617,
      "man": 91.7095,
      "mmo": 15.81764427,
      "sma": 6703.58785
   },
   {
      "name": "ISS DEB (V)",
      "line1": "1 44789U 98067QU  21092.91366716  .00105787  00000-0  62730-3 0  9994",
      "line2": "2 44789  51.6335 321.1225 0001490 284.9878  75.0958 15.77224550 78639",
      "drg": 62.73,
      "inc": 51.6335,
      "ran": 321.1225,
      "ecc": 0.000149,
      "aop": 284.9878,
      "man": 75.0958,
      "mmo": 15.7722455,
      "sma": 6716.44541
   },
   {
      "name": "RWASAT-1",
      "line1": "1 44790U 98067QV  21092.83345567  .00011356  00000-0  15478-3 0  9993",
      "line2": "2 44790  51.6407 339.2062 0006551  19.6053  69.9912 15.58025419 77656",
      "drg": 15.478,
      "inc": 51.6407,
      "ran": 339.2062,
      "ecc": 0.0006551,
      "aop": 19.6053,
      "man": 69.9912,
      "mmo": 15.58025419,
      "sma": 6771.50934
   },
   {
      "name": "AQT-D",
      "line1": "1 44791U 98067QW  21092.85543145  .00011998  00000-0  16256-3 0  9995",
      "line2": "2 44791  51.6406 339.6172 0005366 349.7335  10.3547 15.58125269 77653",
      "drg": 16.256,
      "inc": 51.6406,
      "ran": 339.6172,
      "ecc": 0.0005366,
      "aop": 349.7335,
      "man": 10.3547,
      "mmo": 15.58125269,
      "sma": 6771.22005
   },
   {
      "name": "NARSSCUBE-1",
      "line1": "1 44792U 98067QX  21092.96714062  .00026210  00000-0  29222-3 0  9996",
      "line2": "2 44792  51.6381 333.5294 0003194  16.9282 343.1818 15.62622310 77747",
      "drg": 29.222,
      "inc": 51.6381,
      "ran": 333.5294,
      "ecc": 0.0003194,
      "aop": 16.9282,
      "man": 343.1818,
      "mmo": 15.6262231,
      "sma": 6758.22263
   },
   {
      "name": "STPSAT-4",
      "line1": "1 45043U 98067QY  21092.87919411  .00006994  00000-0  11654-3 0  9998",
      "line2": "2 45043  51.6418 350.1912 0004920   4.7286 355.3750 15.53208140 66757",
      "drg": 11.654,
      "inc": 51.6418,
      "ran": 350.1912,
      "ecc": 0.000492,
      "aop": 4.7286,
      "man": 355.375,
      "mmo": 15.5320814,
      "sma": 6785.50335
   },
   {
      "name": "HARP",
      "line1": "1 45256U 98067QZ  21092.88054027  .00015563  00000-0  21842-3 0  9990",
      "line2": "2 45256  51.6421 345.0035 0005847 355.4211   4.6727 15.56910589 63495",
      "drg": 21.842,
      "inc": 51.6421,
      "ran": 345.0035,
      "ecc": 0.0005847,
      "aop": 355.4211,
      "man": 4.6727,
      "mmo": 15.56910589,
      "sma": 6774.74146
   },
   {
      "name": "1998-067RA",
      "line1": "1 45257U 98067RA  21092.87699984  .00011159  00000-0  16378-3 0  9992",
      "line2": "2 45257  51.6407 345.6909 0006465 359.1238   0.9741 15.56033712 63481",
      "drg": 16.378,
      "inc": 51.6407,
      "ran": 345.6909,
      "ecc": 0.0006465,
      "aop": 359.1238,
      "man": 0.9741,
      "mmo": 15.56033712,
      "sma": 6777.28642
   },
   {
      "name": "PHOENIX",
      "line1": "1 45258U 98067RB  21092.83509253  .00010391  00000-0  15794-3 0  9996",
      "line2": "2 45258  51.6407 346.8967 0004859 338.9384  21.1406 15.55166124 63432",
      "drg": 15.794,
      "inc": 51.6407,
      "ran": 346.8967,
      "ecc": 0.0004859,
      "aop": 338.9384,
      "man": 21.1406,
      "mmo": 15.55166124,
      "sma": 6779.80677
   }
]